[{"OBJECT_NAME":"SWARM B","OBJECT_ID":"2013-067A","EPOCH":"2026-03-09T22:20:48.706656","MEAN_MOTION":15.27862638,"ECCENTRICITY":0.00036996,"INCLINATION":87.749,"RA_OF_ASC_NODE":12.4162,"ARG_OF_PERICENTER":86.3179,"MEAN_ANOMALY":273.8493,"EPHEMERIS_TYPE":0,"CLASSIFICATION_TYPE":"U","NORAD_CAT_ID":39451,"ELEMENT_SET_NO":999,"REV_AT_EPOCH":66808,"BSTAR":0.00020534236,"MEAN_MOTION_DOT":5.616e-5,"MEAN_MOTION_DDOT":0},{"OBJECT_NAME":"STARLINK-34099","OBJECT_ID":"2025-099H","EPOCH":"2026-03-09T07:16:23.100096","MEAN_MOTION":15.27642428,"ECCENTRICITY":0.00026737,"INCLINATION":43.0018,"RA_OF_ASC_NODE":178.7135,"ARG_OF_PERICENTER":282.211,"MEAN_ANOMALY":77.8442,"EPHEMERIS_TYPE":0,"CLASSIFICATION_TYPE":"U","NORAD_CAT_ID":63959,"ELEMENT_SET_NO":999,"REV_AT_EPOCH":4727,"BSTAR":0.0012723281,"MEAN_MOTION_DOT":0.00034984,"MEAN_MOTION_DDOT":0}]
